[{"OBJECT_NAME":"STARLINK-32854","OBJECT_ID":"2025-018L","EPOCH":"2026-03-09T20:34:38.294688","MEAN_MOTION":15.30219318,"ECCENTRICITY":0.00010372,"INCLINATION":53.1606,"RA_OF_ASC_NODE":308.8489,"ARG_OF_PERICENTER":107.2316,"MEAN_ANOMALY":252.8799,"EPHEMERIS_TYPE":0,"CLASSIFICATION_TYPE":"U","NORAD_CAT_ID":62816,"ELEMENT_SET_NO":999,"REV_AT_EPOCH":6318,"BSTAR":0.0013266695,"MEAN_MOTION_DOT":0.00039164,"MEAN_MOTION_DDOT":0},{"OBJECT_NAME":"TRANSPORTER-1 OBJECT AA","OBJECT_ID":"2021-006AA","EPOCH":"2026-03-09T22:58:14.761920","MEAN_MOTION":15.29982294,"ECCENTRICITY":0.00086604,"INCLINATION":97.2381,"RA_OF_ASC_NODE":112.457,"ARG_OF_PERICENTER":185.709,"MEAN_ANOMALY":174.4054,"EPHEMERIS_TYPE":0,"CLASSIFICATION_TYPE":"U","NORAD_CAT_ID":47437,"ELEMENT_SET_NO":999,"REV_AT_EPOCH":28414,"BSTAR":0.0002197941,"MEAN_MOTION_DOT":6.312e-5,"MEAN_MOTION_DDOT":0}]
